#dP2023  1 30 18  0  0.00000000      96 __u+U ITR00 EXT  IAC
## 2247 151200.00000000   900.00000000 59974 0.7500000000000
+  119   C06C07C08C09C10C11C12C13C14C16C19C20C21C22C23C24C25
+        C26C27C28C29C30C32C33C34C35C36C37C38C39C40C41C42C43
+        C44C45C46E01E02E03E04E05E07E08E09E10E11E12E13E14E15
+        E18E19E21E24E25E26E27E30E31E33E34E36G01G02G03G04G05
+        G06G07G08G09G10G11G12G13G14G15G16G17G18G19G20G21G22
+        G23G24G25G26G27G29G30G31G32J02J03J04R01R02R03R04R05
+        R07R08R09R11R12R13R14R15R16R17R18R19R20R21R22R24R25
++        11  9 10 11  9  9  9  7  9 11  9  7  9  7 10 10  9
++        10  8  9  7  9  9  9 10  9  9  8 11 11 10  9  8 10
++         7 10  8  8  8 11  7 10  7  8 10  8  8  7  8  8  8
++         8  9  7  8  8  8  7  7  9  7  8  8  9  8  7  7  7
++         8  6  7  9  8  7  8  8  7  7  7  7 10  8  7  8  7
++         8  8  7  7  7  8  6  7  8  8 10  9  7  7  9  7  9
++        10  7  7  9  9  7  8  7  6  7  8 10 10  9  7  7  8
%c M  cc GPS ccc cccc cccc cccc cccc ccccc ccccc ccccc ccccc
%c cc cc ccc ccc cccc cccc cccc cccc ccccc ccccc ccccc ccccc
%f  0.0000000  0.000000000  0.00000000000  0.000000000000000
%f  0.0000000  0.000000000  0.00000000000  0.000000000000000
%i    0    0    0    0      0      0      0      0         0
%i    0    0    0    0      0      0      0      0         0
/* IAC                                ULTRA-RAPID PREDICTION
/* S/V CLOCKS ARE ALIGNED TO GNSS TIME                      
/* G:C1WC2W R:C1PC2P E:C1XC5X C:C2IC6I J:C1CC2S             
/* PCV:IGS20_2239 OL/AL:FES2004  NONE     YN ORB:CoN CLK:CoN
*  2023 01 31  7  0  0.00000000
PC06 -15767.136861  38377.002056   6634.301113   -188.986952
PC07  -2146.504459  33048.457589  26218.914829    182.777240
PC08 -12385.748950  20334.779011 -34821.346718    527.617719
PC09 -10091.684319  37737.574513  15535.801236    482.213176
PC10   3996.011500  35692.008970  22757.587437     21.315369
PC11   -269.876677  24690.960196 -12946.351848   -147.379038
PC12 -12055.865864  24826.011504   4186.977429    426.459429
PC13  -6393.150496  22204.999100 -35134.307033    196.406177
PC14  11514.794732  23454.675741  -9854.596712    426.713131
PC16 -16349.322163  38302.840687   5645.131429     70.093982
PC19 -17920.962050 -21366.157645    797.452447   -895.249719
PC20  -4687.827271 -22215.260304  16222.609032    744.627066
PC21 -12396.720195   9703.371188 -23023.743068   -913.317607
PC22 -21440.593513  -8125.053295 -15891.119929   -657.521770
PC23  26784.026018    579.349006   7791.853715   -874.071712
PC24  -7412.288859  16834.217358  20973.693849   -471.425314
PC25  15297.713944  11573.619476  20246.334228     64.210524
PC26 -22776.677784  12480.705429  10239.170538    -72.010762
PC27  15817.844947 -19694.915818 -11895.218376     89.670456
PC28  17009.034756  -2178.276415 -22009.769397     65.066480
PC29  -8515.858695 -18104.592510  19452.561891     74.699066
PC30   5197.367031 -27052.591907   4541.939069      1.237704
PC32  12420.414331  -9727.350898  23035.730079   -634.799309
PC33  18032.785684  21289.001535   -850.010746   -876.249027
PC34  -4337.264964  26952.238438  -5732.183416     95.621527
PC35 -16741.869737   1259.847738  22277.357816    688.543859
PC36 -14386.834412 -12249.168824 -20525.318758   -657.390210
PC37  23863.918518 -11254.898124  -9041.606076   -832.864995
PC38 -21075.175977  21187.454247 -29754.414696     55.587335
PC39 -18928.524317  37455.458761  -2417.849590     -1.637816
PC40  -5351.535789  29082.620987  30130.106709    -13.901109
PC41  21621.313152   8561.054274  15481.187674   -556.185718
PC42   3625.454070  21810.143198 -16993.035860   -863.973710
PC43   8065.082347  18795.479247 -18979.536898      4.792607
PC44 -15203.189462  20066.080872  11992.670807  -4149.909711
PC45 -26905.743901   -279.191459  -7462.111752    -54.405768
PC46   5335.109330 -16752.409793 -21671.664012    -30.150365
PE01 -21042.324628   6574.674162  19753.689329   -599.396375
PE02  20698.413290  -6887.158390 -20005.504116     17.946889
PE03  12566.167718 -15955.707695  21527.266439   -645.300454
PE04   -505.975376  28571.957814  -7705.189679    -47.938461
PE05  17514.981052   6350.704556  23002.310073    -99.952314
PE07 -12115.008533 -24687.406711 -10941.641463    -19.318165
PE08    491.346983 -28529.120330   7862.075924    -28.307395
PE09  12010.310901  24802.057414  10819.897136   -819.254944
PE10  -1201.907018  19661.206629 -22094.540538   -508.969327
PE11   9294.289815  13196.966387 -24813.460794    689.732954
PE12 -10480.374738  22472.635848 -16145.029770   -404.426465
PE13  -8413.173485 -13797.232215  24809.550688    429.583841
PE14  19876.481194    -75.185409 -23791.829555    128.721324
PE15  10780.787360 -22514.288058  15926.838689    690.522176
PE18 -13246.700088  15669.500354  16501.087814   -446.271598
PE19 -13702.624821  13196.336292 -22670.487720  -3352.412209
PE21 -28364.417109  -6621.675725   5297.133127   -509.400681
PE24  19346.464130  17489.244512  13953.431034  -1087.896311
PE25  28356.049801   6833.169362  -5003.186015   -598.361996
PE26 -22894.298431   3500.044731  18441.704603      4.435225
PE27 -20137.831950 -17158.218404 -13297.171520   -500.782156
PE30    699.329097 -17357.951610 -23984.158993  -1204.054555
PE31    113.958740  17484.063676  23883.705674   -514.760807
PE33 -23481.526513  17863.505169   2317.146708   -453.073826
PE34  23392.839032 -18007.923717  -2136.604772    -27.632441
PE36  22468.435596  -2917.648567 -19045.545809     -5.346458
PG01  -9247.169098  19298.767372 -15811.190976    218.007794
PG02   4890.489434 -20108.853901  17406.809422   -623.963508
PG03    487.188036  15964.045739 -21364.103113   -368.099101
PG04   -805.402841  26190.835474  -3957.555302    -37.609293
PG05  15432.876930  -8649.982091  19676.796251   -114.071039
PG06  20833.162554  -1741.626615 -16366.368890    566.392927
PG07   5679.044049  14949.716063  21579.400387    249.595879
PG08  -7612.921293  20515.435767  14720.165833   -106.206226
PG09   7938.830072  24410.190346   6653.093086   -226.913779
PG10 -24102.106729 -11509.103655   1301.834881    -22.694248
PG11  23477.274603 -11383.759639  -4862.353822    -91.865375
PG12   2335.093935 -15649.536276 -21625.665607   -334.599161
PG13  12919.481891 -13983.777654  18261.966568    468.352495
PG14  22675.347864  13557.815421   3339.535839    -37.977597
PG15   5125.941989 -21685.392614  13797.076050      9.299182
PG16 -18565.198262   4286.379714  18400.999969   -522.024297
PG17  12420.707141  15361.735255 -17271.840560    696.986044
PG18  -8267.595534 -12458.593509  21953.770340   -120.999733
PG19  14851.921537   4082.534737 -21893.728917    271.332726
PG20  23450.829392  -2893.909986  11947.310852    453.673894
PG21 -15395.488698  19771.433065  -6848.385469    153.751486
PG22 -14974.083698    157.776086 -21504.017933    417.246776
PG23 -17760.492684 -15926.428212  11830.140660      4.272760
PG24  11226.822103 -21095.710685 -11481.432988    -53.460134
PG25  -8391.282676 -17733.385927 -18340.779234    416.024184
PG26 -25307.312665  -2993.431420   7968.119873    241.017165
PG27 -13055.032697   9989.402784  20536.058573    113.820264
PG29  -3711.971422 -25906.545660   4227.568574   -583.496560
PG30  16912.726847   5844.960570  19794.747825   -531.787033
PG31 -22213.842543   2718.473536 -14812.665054   -207.888237
PG32 -14560.677999 -11970.997877 -18628.944430   -381.359810
PJ02 -28910.043805  20797.645613  27582.718916     -0.739289
PJ03 -32509.894509  26393.086690  10492.459165      0.045048
PJ04 -20819.811110  24251.679259 -22318.175593    121.279841
PR01  16403.835971  13883.656469  13752.028840     22.192386
PR02  10460.994404  -3484.710408  23042.682567    -23.333187
PR03   -913.934037 -18217.810181  17906.715398     71.667147
PR04 -11469.957062 -22593.804500   3039.793323    174.042402
PR05 -15790.084924 -14795.036561 -13517.769343    107.002558
PR07   1454.447066  18615.191708 -17311.586425     49.002904
PR08  11704.961084  22474.037621  -2717.232611    -69.273646
PR09 -23186.603753   5316.604201   9118.991995    101.510839
PR11   8782.325609  10100.175780  21721.686207      0.885304
PR12  23691.238793   3785.737506   8651.120989     24.700514
PR13  23998.141543  -4254.819832  -7537.516153    -31.497765
PR14   9431.131816 -10509.135504 -21241.959922     24.307912
PR15  -9841.853360 -10087.703560 -21249.645245     91.387315
PR16 -23573.341096  -3675.132238  -8986.092020     10.672326
PR17  11214.414549 -22647.033454   3351.025240    600.614330
PR18   1247.594728 -18114.501139  17962.752449     64.452488
PR19  -8633.727266  -5719.029450  23315.877412   -220.169310
PR20 -16040.929060  13528.930261  14481.491181    -86.847154
PR21 -10569.036879  22679.020428  -5013.493646   -369.647589
PR22  -1028.761422  17696.118935 -18304.685938     68.973882
PR24  15874.838372 -14429.975013 -13771.204078    143.406103
PR25 -12438.104978  22082.439339  -2954.710913     53.107283
EOF
